[{"OBJECT_NAME":"NAPA-1","OBJECT_ID":"2020-061BA","EPOCH":"2026-03-09T22:41:35.210688","MEAN_MOTION":15.57045946,"ECCENTRICITY":0.00010032,"INCLINATION":97.2581,"RA_OF_ASC_NODE":140.6709,"ARG_OF_PERICENTER":121.0916,"MEAN_ANOMALY":239.0438,"EPHEMERIS_TYPE":0,"CLASSIFICATION_TYPE":"U","NORAD_CAT_ID":46320,"ELEMENT_SET_NO":999,"REV_AT_EPOCH":30624,"BSTAR":0.00073314827,"MEAN_MOTION_DOT":0.00053161,"MEAN_MOTION_DDOT":0},{"OBJECT_NAME":"CZ-2C R\/B","OBJECT_ID":"2022-132E","EPOCH":"2026-03-09T22:45:31.665888","MEAN_MOTION":15.61866715,"ECCENTRICITY":0.00206265,"INCLINATION":97.2967,"RA_OF_ASC_NODE":72.2731,"ARG_OF_PERICENTER":90.5762,"MEAN_ANOMALY":269.7859,"EPHEMERIS_TYPE":0,"CLASSIFICATION_TYPE":"U","NORAD_CAT_ID":54039,"ELEMENT_SET_NO":999,"REV_AT_EPOCH":19041,"BSTAR":0.0005096281,"MEAN_MOTION_DOT":0.00044728,"MEAN_MOTION_DDOT":0}]
